[{"OBJECT_NAME":"HORYU-4","OBJECT_ID":"2016-012D","EPOCH":"2026-03-07T02:28:52.293792","MEAN_MOTION":15.62332085,"ECCENTRICITY":0.0002583,"INCLINATION":30.9914,"RA_OF_ASC_NODE":86.0956,"ARG_OF_PERICENTER":125.8561,"MEAN_ANOMALY":234.2331,"EPHEMERIS_TYPE":0,"CLASSIFICATION_TYPE":"U","NORAD_CAT_ID":41340,"ELEMENT_SET_NO":999,"REV_AT_EPOCH":55470,"BSTAR":0.0009854,"MEAN_MOTION_DOT":0.00091629,"MEAN_MOTION_DDOT":0},{"OBJECT_NAME":"RAVAN","OBJECT_ID":"2016-067B","EPOCH":"2026-03-07T04:24:54.380736","MEAN_MOTION":15.45894633,"ECCENTRICITY":0.0006503,"INCLINATION":98.0044,"RA_OF_ASC_NODE":304.6403,"ARG_OF_PERICENTER":15.0154,"MEAN_ANOMALY":345.1286,"EPHEMERIS_TYPE":0,"CLASSIFICATION_TYPE":"U","NORAD_CAT_ID":41849,"ELEMENT_SET_NO":999,"REV_AT_EPOCH":51189,"BSTAR":0.00091603,"MEAN_MOTION_DOT":0.00044654,"MEAN_MOTION_DDOT":0},{"OBJECT_NAME":"CELTEE 1","OBJECT_ID":"2016-067C","EPOCH":"2026-03-07T01:07:14.846304","MEAN_MOTION":15.18547503,"ECCENTRICITY":8.38e-5,"INCLINATION":98.0815,"RA_OF_ASC_NODE":285.6389,"ARG_OF_PERICENTER":130.197,"MEAN_ANOMALY":229.9335,"EPHEMERIS_TYPE":0,"CLASSIFICATION_TYPE":"U","NORAD_CAT_ID":41850,"ELEMENT_SET_NO":999,"REV_AT_EPOCH":51037,"BSTAR":0.00032638,"MEAN_MOTION_DOT":6.666e-5,"MEAN_MOTION_DDOT":0},{"OBJECT_NAME":"OPTICUBE 04","OBJECT_ID":"2016-067D","EPOCH":"2026-03-07T02:57:21.570912","MEAN_MOTION":15.09166595,"ECCENTRICITY":0.0016971,"INCLINATION":98.0805,"RA_OF_ASC_NODE":273.0393,"ARG_OF_PERICENTER":102.1107,"MEAN_ANOMALY":258.2023,"EPHEMERIS_TYPE":0,"CLASSIFICATION_TYPE":"U","NORAD_CAT_ID":41851,"ELEMENT_SET_NO":999,"REV_AT_EPOCH":50977,"BSTAR":0.00024101,"MEAN_MOTION_DOT":3.768e-5,"MEAN_MOTION_DDOT":0},{"OBJECT_NAME":"AEROCUBE 8D","OBJECT_ID":"2016-067E","EPOCH":"2026-03-07T03:58:05.534976","MEAN_MOTION":15.22814111,"ECCENTRICITY":0.0004562,"INCLINATION":98.083,"RA_OF_ASC_NODE":288.6016,"ARG_OF_PERICENTER":117.7566,"MEAN_ANOMALY":242.4132,"EPHEMERIS_TYPE":0,"CLASSIFICATION_TYPE":"U","NORAD_CAT_ID":41852,"ELEMENT_SET_NO":999,"REV_AT_EPOCH":51053,"BSTAR":0.00044796,"MEAN_MOTION_DOT":0.00010405,"MEAN_MOTION_DDOT":0},{"OBJECT_NAME":"AEROCUBE 8C","OBJECT_ID":"2016-067F","EPOCH":"2026-03-07T03:22:09.955200","MEAN_MOTION":15.23038296,"ECCENTRICITY":0.0006573,"INCLINATION":98.0697,"RA_OF_ASC_NODE":285.9377,"ARG_OF_PERICENTER":60.8617,"MEAN_ANOMALY":299.3275,"EPHEMERIS_TYPE":0,"CLASSIFICATION_TYPE":"U","NORAD_CAT_ID":41853,"ELEMENT_SET_NO":999,"REV_AT_EPOCH":51052,"BSTAR":0.00043607,"MEAN_MOTION_DOT":0.00010197,"MEAN_MOTION_DDOT":0},{"OBJECT_NAME":"CORVUS BC2","OBJECT_ID":"2017-042X","EPOCH":"2026-03-06T22:27:58.944096","MEAN_MOTION":15.0557413,"ECCENTRICITY":0.0014361,"INCLINATION":97.3943,"RA_OF_ASC_NODE":231.3731,"ARG_OF_PERICENTER":101.8509,"MEAN_ANOMALY":258.433,"EPHEMERIS_TYPE":0,"CLASSIFICATION_TYPE":"U","NORAD_CAT_ID":42846,"ELEMENT_SET_NO":999,"REV_AT_EPOCH":47167,"BSTAR":0.00039238,"MEAN_MOTION_DOT":5.609e-5,"MEAN_MOTION_DDOT":0},{"OBJECT_NAME":"CORVUS BC1","OBJECT_ID":"2017-042Y","EPOCH":"2026-03-07T00:13:38.290080","MEAN_MOTION":15.05784716,"ECCENTRICITY":0.001317,"INCLINATION":97.3973,"RA_OF_ASC_NODE":232.1872,"ARG_OF_PERICENTER":79.9946,"MEAN_ANOMALY":280.2767,"EPHEMERIS_TYPE":0,"CLASSIFICATION_TYPE":"U","NORAD_CAT_ID":42847,"ELEMENT_SET_NO":999,"REV_AT_EPOCH":47171,"BSTAR":0.00035425,"MEAN_MOTION_DOT":5.085e-5,"MEAN_MOTION_DDOT":0},{"OBJECT_NAME":"MAKERSAT 0","OBJECT_ID":"2017-073D","EPOCH":"2026-03-07T03:32:48.210144","MEAN_MOTION":15.27649439,"ECCENTRICITY":0.0115557,"INCLINATION":97.4778,"RA_OF_ASC_NODE":308.1181,"ARG_OF_PERICENTER":274.9793,"MEAN_ANOMALY":83.8263,"EPHEMERIS_TYPE":0,"CLASSIFICATION_TYPE":"U","NORAD_CAT_ID":43016,"ELEMENT_SET_NO":999,"REV_AT_EPOCH":45086,"BSTAR":0.00078508,"MEAN_MOTION_DOT":0.00025861,"MEAN_MOTION_DDOT":0},{"OBJECT_NAME":"SIRION PATHFINDER-2","OBJECT_ID":"2018-099B","EPOCH":"2026-03-07T01:45:24.404832","MEAN_MOTION":15.13498667,"ECCENTRICITY":0.0007407,"INCLINATION":97.4393,"RA_OF_ASC_NODE":117.5615,"ARG_OF_PERICENTER":297.53,"MEAN_ANOMALY":62.5178,"EPHEMERIS_TYPE":0,"CLASSIFICATION_TYPE":"U","NORAD_CAT_ID":43759,"ELEMENT_SET_NO":999,"REV_AT_EPOCH":39717,"BSTAR":0.00036436,"MEAN_MOTION_DOT":6.463e-5,"MEAN_MOTION_DDOT":0},{"OBJECT_NAME":"CORVUS BC4","OBJECT_ID":"2018-099K","EPOCH":"2026-03-07T01:51:40.581792","MEAN_MOTION":15.11577575,"ECCENTRICITY":0.0008303,"INCLINATION":97.4205,"RA_OF_ASC_NODE":112.0382,"ARG_OF_PERICENTER":4.7667,"MEAN_ANOMALY":355.3641,"EPHEMERIS_TYPE":0,"CLASSIFICATION_TYPE":"U","NORAD_CAT_ID":43767,"ELEMENT_SET_NO":999,"REV_AT_EPOCH":39697,"BSTAR":0.00036851,"MEAN_MOTION_DOT":6.196e-5,"MEAN_MOTION_DDOT":0},{"OBJECT_NAME":"SPACEBEE-7","OBJECT_ID":"2018-099BL","EPOCH":"2026-03-07T03:59:43.794240","MEAN_MOTION":16.22510522,"ECCENTRICITY":0.0010082,"INCLINATION":97.4298,"RA_OF_ASC_NODE":153.0701,"ARG_OF_PERICENTER":277.0464,"MEAN_ANOMALY":82.9679,"EPHEMERIS_TYPE":0,"CLASSIFICATION_TYPE":"U","NORAD_CAT_ID":43816,"ELEMENT_SET_NO":999,"REV_AT_EPOCH":39881,"BSTAR":0.001815,"MEAN_MOTION_DOT":0.04186443,"MEAN_MOTION_DDOT":2.4635e-6},{"OBJECT_NAME":"M2 PATHFINDER","OBJECT_ID":"2020-037E","EPOCH":"2026-03-07T02:02:10.695264","MEAN_MOTION":15.04152718,"ECCENTRICITY":0.0012373,"INCLINATION":97.8148,"RA_OF_ASC_NODE":256.1778,"ARG_OF_PERICENTER":135.0773,"MEAN_ANOMALY":225.1456,"EPHEMERIS_TYPE":0,"CLASSIFICATION_TYPE":"U","NORAD_CAT_ID":45727,"ELEMENT_SET_NO":999,"REV_AT_EPOCH":31014,"BSTAR":0.00028047,"MEAN_MOTION_DOT":3.833e-5,"MEAN_MOTION_DDOT":0},{"OBJECT_NAME":"NETSAT-4","OBJECT_ID":"2020-068U","EPOCH":"2026-03-06T22:15:24.043104","MEAN_MOTION":15.40232703,"ECCENTRICITY":0.0004957,"INCLINATION":97.8645,"RA_OF_ASC_NODE":66.2216,"ARG_OF_PERICENTER":349.6651,"MEAN_ANOMALY":10.4491,"EPHEMERIS_TYPE":0,"CLASSIFICATION_TYPE":"U","NORAD_CAT_ID":46504,"ELEMENT_SET_NO":999,"REV_AT_EPOCH":30001,"BSTAR":0.0005668,"MEAN_MOTION_DOT":0.00022744,"MEAN_MOTION_DDOT":0},{"OBJECT_NAME":"NETSAT-3","OBJECT_ID":"2020-068V","EPOCH":"2026-03-06T23:31:47.810208","MEAN_MOTION":15.38895563,"ECCENTRICITY":0.0005455,"INCLINATION":97.8678,"RA_OF_ASC_NODE":64.6413,"ARG_OF_PERICENTER":8.313,"MEAN_ANOMALY":351.8203,"EPHEMERIS_TYPE":0,"CLASSIFICATION_TYPE":"U","NORAD_CAT_ID":46505,"ELEMENT_SET_NO":999,"REV_AT_EPOCH":29994,"BSTAR":0.00061036,"MEAN_MOTION_DOT":0.00023452,"MEAN_MOTION_DDOT":0},{"OBJECT_NAME":"NETSAT-1","OBJECT_ID":"2020-068W","EPOCH":"2026-03-06T22:36:04.878432","MEAN_MOTION":15.31917739,"ECCENTRICITY":0.0006154,"INCLINATION":97.8744,"RA_OF_ASC_NODE":60.0647,"ARG_OF_PERICENTER":27.8812,"MEAN_ANOMALY":332.2757,"EPHEMERIS_TYPE":0,"CLASSIFICATION_TYPE":"U","NORAD_CAT_ID":46506,"ELEMENT_SET_NO":999,"REV_AT_EPOCH":29963,"BSTAR":0.00059708,"MEAN_MOTION_DOT":0.0001835,"MEAN_MOTION_DDOT":0},{"OBJECT_NAME":"NETSAT-2","OBJECT_ID":"2020-068X","EPOCH":"2026-03-06T22:44:47.442048","MEAN_MOTION":15.41403896,"ECCENTRICITY":0.0004938,"INCLINATION":97.8653,"RA_OF_ASC_NODE":65.8423,"ARG_OF_PERICENTER":29.553,"MEAN_ANOMALY":330.5994,"EPHEMERIS_TYPE":0,"CLASSIFICATION_TYPE":"U","NORAD_CAT_ID":46507,"ELEMENT_SET_NO":999,"REV_AT_EPOCH":29996,"BSTAR":0.00067026,"MEAN_MOTION_DOT":0.00027994,"MEAN_MOTION_DDOT":0}]
