HORYU-4                 
1 41340U 16012D   26066.10338303  .00091629  00000+0  98540-3 0  9998
2 41340  30.9914  86.0956 0002583 125.8561 234.2331 15.62332085554704
RAVAN                   
1 41849U 16067B   26066.18396274  .00044654  00000+0  91603-3 0  9990
2 41849  98.0044 304.6403 0006503  15.0154 345.1286 15.45894633511894
CELTEE 1                
1 41850U 16067C   26066.04669961  .00006666  00000+0  32638-3 0  9997
2 41850  98.0815 285.6389 0000838 130.1970 229.9335 15.18547503510370
OPTICUBE 04             
1 41851U 16067D   26066.12316633  .00003768  00000+0  24101-3 0  9998
2 41851  98.0805 273.0393 0016971 102.1107 258.2023 15.09166595509771
AEROCUBE 8D             
1 41852U 16067E   26066.16534184  .00010405  00000+0  44796-3 0  9994
2 41852  98.0830 288.6016 0004562 117.7566 242.4132 15.22814111510539
AEROCUBE 8C             
1 41853U 16067F   26066.14039300  .00010197  00000+0  43607-3 0  9991
2 41853  98.0697 285.9377 0006573  60.8617 299.3275 15.23038296510521
CORVUS BC2              
1 42846U 17042X   26065.93609889  .00005609  00000+0  39238-3 0  9996
2 42846  97.3943 231.3731 0014361 101.8509 258.4330 15.05574130471671
CORVUS BC1              
1 42847U 17042Y   26066.00947095  .00005085  00000+0  35425-3 0  9992
2 42847  97.3973 232.1872 0013170  79.9946 280.2767 15.05784716471712
MAKERSAT 0              
1 43016U 17073D   26066.14778021  .00025861  00000+0  78508-3 0  9994
2 43016  97.4778 308.1181 0115557 274.9793  83.8263 15.27649439450868
SIRION PATHFINDER-2     
1 43759U 18099B   26066.07319913  .00006463  00000+0  36436-3 0  9991
2 43759  97.4393 117.5615 0007407 297.5300  62.5178 15.13498667397171
CORVUS BC4              
1 43767U 18099K   26066.07755303  .00006196  00000+0  36851-3 0  9991
2 43767  97.4205 112.0382 0008303   4.7667 355.3641 15.11577575396972
SPACEBEE-7              
1 43816U 18099BL  26066.16647910  .04186443  24635-5  18150-2 0  9995
2 43816  97.4298 153.0701 0010082 277.0464  82.9679 16.22510522398817
M2 PATHFINDER           
1 45727U 20037E   26066.08484601  .00003833  00000+0  28047-3 0  9998
2 45727  97.8148 256.1778 0012373 135.0773 225.1456 15.04152718310140
NETSAT-4                
1 46504U 20068U   26065.92736161  .00022744  00000+0  56680-3 0  9995
2 46504  97.8645  66.2216 0004957 349.6651  10.4491 15.40232703300012
NETSAT-3                
1 46505U 20068V   26065.98041447  .00023452  00000+0  61036-3 0  9996
2 46505  97.8678  64.6413 0005455   8.3130 351.8203 15.38895563299943
NETSAT-1                
1 46506U 20068W   26065.94172313  .00018350  00000+0  59708-3 0  9994
2 46506  97.8744  60.0647 0006154  27.8812 332.2757 15.31917739299633
NETSAT-2                
1 46507U 20068X   26065.94777132  .00027994  00000+0  67026-3 0  9991
2 46507  97.8653  65.8423 0004938  29.5530 330.5994 15.41403896299967
